COSMOS 2425 (716)       
1 29670U 06062A   21127.19632883 -.00000047  00000-0  00000+0 0  9992
2 29670  64.8574 256.8410 0024008 347.0436 190.8606  2.13115430111785
COSMOS 2433 (720)       
1 32275U 07052A   21131.13451957 -.00000073  00000-0  00000-0 0  9997
2 32275  66.0542  18.0242 0001862 288.0450 206.8102  2.13104104105398
COSMOS 2432 (719)       
1 32276U 07052B   21131.01503775 -.00000073  00000-0  00000-0 0  9991
2 32276  66.0688  18.1227 0010985 336.4171  16.1605  2.13103560105382
COSMOS 2434 (721)       
1 32393U 07065A   21130.94380611 -.00000024  00000-0  00000-0 0  9994
2 32393  64.4720 255.1896 0003934  91.3606 145.4774  2.13103073104091
COSMOS 2436 (723)       
1 32395U 07065C   21131.03518598 -.00000023  00000-0  00000-0 0  9993
2 32395  64.4815 255.2393 0014858   4.6079  78.4475  2.13102971104032
COSMOS 2456 (730)       
1 36111U 09070A   21131.21767241  .00000069  00000-0  00000-0 0  9991
2 36111  64.2722 134.8598 0006224 303.5668 314.4065  2.13099265 88769
COSMOS 2457 (733)       
1 36112U 09070B   21131.08112350  .00000070  00000-0  00000-0 0  9994
2 36112  64.2530 134.7503 0004541 197.0626  80.2411  2.13101450 88765
COSMOS 2459 (731)       
1 36400U 10007A   21130.70484294 -.00000074  00000-0  00000-0 0  9998
2 36400  65.9537  16.9679 0026486 351.0750  31.0428  2.13108141 87100
COSMOS 2461 (735)       
1 36401U 10007B   21131.08021575 -.00000073  00000-0  00000-0 0  9999
2 36401  65.9483  16.9202 0021707   8.5818 302.6060  2.13103806 87116
COSMOS 2460 (732)       
1 36402U 10007C   21130.85030139 -.00000073  00000-0  00000-0 0  9990
2 36402  65.9355  16.8847 0001966  26.2174  53.0155  2.13106552 87119
COSMOS 2464 (736)       
1 37139U 10041C   21131.14480492 -.00000021  00000-0  00000-0 0  9993
2 37139  64.0722 254.4594 0027894  12.9047 239.3312  2.13100729 83179
COSMOS 2471 (701K)      
1 37372U 11009A   21131.12818690 -.00000072  00000-0  00000-0 0  9996
2 37372  65.9300  16.8146 0013234 229.1861 220.6041  2.13081294 79398
COSMOS 2476 (744)       
1 37867U 11064A   21131.23670029  .00000071  00000-0  00000-0 0  9998
2 37867  64.5657 136.0574 0022366 242.0001 292.6155  2.13101881 74118
COSMOS 2477 (745)       
1 37868U 11064B   21131.14843675  .00000072  00000-0  00000-0 0  9999
2 37868  64.5741 136.1214 0019868 243.4232  41.8118  2.13101724 74062
COSMOS 2475 (743)       
1 37869U 11064C   21131.03713449  .00000073  00000-0  00000-0 0  9994
2 37869  64.5808 136.1290 0024296 260.9148 256.5805  2.13101946 74077
COSMOS 2485 (747)       
1 39155U 13019A   21130.80952706  .00000075  00000-0  00000-0 0  9993
2 39155  64.7317 136.4129 0022679 237.8654  13.5073  2.13101904 62570
COSMOS 2492 (754)       
1 39620U 14012A   21131.06162995 -.00000073  00000-0  00000-0 0  9995
2 39620  65.8236  16.6151 0014063 331.3512 148.2753  2.13103190 55532
COSMOS 2500 (755)       
1 40001U 14032A   21130.71026034 -.00000074  00000-0  00000-0 0  9997
2 40001  65.7618  16.5192 0004380 199.3486 230.4566  2.13102556 53749
COSMOS 2501 (702K)      
1 40315U 14075A   21131.02142547 -.00000024  00000-0  00000-0 0  9990
2 40315  63.7845 255.2845 0016625 207.3509 267.3670  2.13101392 50159
COSMOS 2514 (751)       
1 41330U 16008A   21131.03046688 -.00000073  00000-0  00000-0 0  9990
2 41330  65.5663  16.2987 0008200 216.3433 282.1787  2.13102922 40910
COSMOS 2516 (753)       
1 41554U 16032A   21130.63818539 -.00000028  00000-0  00000-0 0  9992
2 41554  64.0098 255.4604 0012843 212.9270 239.0241  2.13106826 38512
COSMOS 2522 (752)       
1 42939U 17055A   21131.00842194 -.00000024  00000-0  00000-0 0  9998
2 42939  64.2416 255.7238 0006381 242.5179 357.2581  2.13101897 28274
COSMOS 2527 (756)       
1 43508U 18053A   21130.94986767  .00000074  00000-0  00000-0 0  9991
2 43508  64.8966 136.3250 0009427 243.2563 343.6670  2.13102588 22562
COSMOS 2529 (757)       
1 43687U 18086A   21130.99107596 -.00000024  00000-0  00000-0 0  9991
2 43687  64.4561 255.9334 0008397 271.1582 270.8685  2.13102119 19589
COSMOS 2534 (758)       
1 44299U 19030A   21130.80797225 -.00000026  00000-0  00000-0 0  9997
2 44299  64.5296 255.7861 0011447 291.3431 245.0602  2.13101972 15221
COSMOS 2544 (759)       
1 44850U 19088A   21131.15926942  .00000072  00000-0  00000-0 0  9992
2 44850  64.8803 136.1777 0014225 266.3955 164.9685  2.13102350 11013
COSMOS 2545 (760)       
1 45358U 20018A   21131.21736625 -.00000074  00000-0  00000-0 0  9998
2 45358  64.8986  17.2320 0007396 258.6049  67.3807  2.13102754  8950
